CUTE-1 (CO-55)          
1 27844U 03031E   21168.96875654  .00000059  00000-0  46111-4 0  9991
2 27844  98.6792 177.1738 0011130  79.0706 281.1724 14.22314761932052
CUBESAT XI-IV (CO-57)   
1 27848U 03031J   21168.68062202  .00000048  00000-0  41422-4 0  9999
2 27848  98.6848 177.4545 0011033  91.5905 268.6536 14.21891072931840
CUBESAT XI-V            
1 28895U 05043F   21168.63096057  .00000174  00000-0  42317-4 0  9991
2 28895  98.0591 301.8652 0016206 205.5159 154.5245 14.63921126834032
CUTE-1.7+APD II (CO-65) 
1 32785U 08021C   21168.46673987  .00000299  00000-0  37565-4 0  9994
2 32785  97.6109 147.3087 0013233  10.5176 349.6316 14.88730625712175
AAUSAT-II               
1 32788U 08021F   21168.89068166  .00000333  00000-0  34872-4 0  9998
2 32788  97.5044 163.5292 0009940 269.3787  90.6295 14.95601471713922
DELFI-C3 (DO-64)        
1 32789U 08021G   21168.81293668  .00001695  00000-0  11085-3 0  9990
2 32789  97.3754 204.1655 0013138 135.3274 224.9016 15.09010209716881
SEEDS II (CO-66)        
1 32791U 08021J   21168.69766802  .00000598  00000-0  65204-4 0  9998
2 32791  97.5707 153.4429 0012394 332.2837  27.7720 14.91418452712895
SWISSCUBE               
1 35932U 09051B   21168.49250944  .00000157  00000-0  46238-4 0  9992
2 35932  98.6028   8.5149 0008845  87.9178 272.3031 14.56542044622967
BEESAT-1                
1 35933U 09051C   21169.07637608  .00000126  00000-0  39390-4 0  9991
2 35933  98.5991  10.9353 0007013  97.0944 263.1050 14.56599157623203
ITUPSAT1                
1 35935U 09051E   21169.08090957  .00000106  00000-0  35500-4 0  9991
2 35935  98.6095  11.0780 0009305  98.5008 261.7243 14.55731300622899
TISAT 1                 
1 36799U 10035E   21168.78657824  .00000371  00000-0  42910-4 0  9999
2 36799  98.2060 359.6177 0011403 206.7623 153.3008 14.91749488593387
M-CUBED & EXP-1 PRIME   
1 37855U 11061F   21168.68872211  .00002756  00000-0  13847-3 0  9996
2 37855 101.7121  92.2080 0167018  69.9805 291.9303 15.07685577526218
AEROCUBE 4.5A           
1 38767U 12048K   21168.72415892  .00000844  00000-0  79863-4 0  9995
2 38767  64.6640 173.8106 0152973   6.6392 353.6696 14.92796214 96310
AEROCUBE 4.5B           
1 38768U 12048L   21168.88493066  .00001600  00000-0  12698-3 0  9995
2 38768  64.6653 135.2084 0144869   1.0681 359.0712 14.96679900 96558
STRAND-1                
1 39090U 13009E   21169.10366654 -.00000016  00000-0  93458-5 0  9996
2 39090  98.4279  11.2918 0007926 278.4384  81.5903 14.35174629435150
SOMP                    
1 39134U 13015E   21168.83866266  .00002127  00000-0  99835-4 0  9993
2 39134  64.8622 171.2137 0008655 312.1372  47.9020 15.22610874451272
BEESAT-3                
1 39135U 13015F   21168.50978436  .00001134  00000-0  62668-4 0  9992
2 39135  64.8648 201.4730 0003579 339.2425  20.8556 15.19398320450622
BEESAT-2                
1 39136U 13015G   21169.10031464  .00001307  00000-0  71860-4 0  9997
2 39136  64.8736 205.9553 0023198 246.0743 113.7954 15.18761644451010
NEE-01 PEGASO           
1 39151U 13018B   21169.03351703  .00000197  00000-0  32821-4 0  9990
2 39151  97.9796 271.4846 0016851   1.2712 358.8539 14.80356708439766
ESTCUBE 1               
1 39161U 13021C   21169.16363120  .00000205  00000-0  39931-4 0  9994
2 39161  97.9375 250.3372 0010181 143.0626 217.1285 14.72487463435854
POPACS 1                
1 39268U 13055D   21168.27355984  .00006194  00000-0  16697-3 0  9995
2 39268  80.9998 269.5212 0602641 215.8615 140.0691 14.42636701400534
POPACS 2                
1 39269U 13055E   21168.71208139  .00002191  00000-0  61846-4 0  9994
2 39269  81.0137 315.9256 0667647 336.1591  20.9923 14.27836950398062
POPACS 3                
1 39270U 13055F   21168.73551163  .00002864  00000-0  86743-4 0  9996
2 39270  81.0155 342.8254 0704034  52.7782 313.5534 14.18474973376884
ZACUBE-1 (TSHEPISOSAT)  
1 39417U 13066B   21168.85532801  .00000273  00000-0  40228-4 0  9992
2 39417  97.5926 153.1617 0059117 158.3704 202.0027 14.81522745409138
WNISAT-1                
1 39423U 13066H   21169.01326256  .00000155  00000-0  40440-4 0  9998
2 39423  97.7931  71.4668 0174266 195.1476 164.4459 14.53225266401510
TRITON-1                
1 39427U 13066M   21169.13413193  .00000337  00000-0  61371-4 0  9990
2 39427  97.7753 116.8855 0113151 349.7002  10.1885 14.68245811405503
DELFI-N3XT              
1 39428U 13066N   21169.10073216  .00000558  00000-0  95541-4 0  9997
2 39428  97.7797 115.3223 0120040   2.7030 357.4799 14.68014788405246
GOMX-1                  
1 39430U 13066Q   21169.08100127  .00000267  00000-0  56568-4 0  9992
2 39430  97.8142  92.1157 0151717 112.6280 249.1049 14.59617043403139
CUBEBUG-2 (LO-74)       
1 39440U 13066AA  21168.85874956  .00000244  00000-0  40766-4 0  9993
2 39440  97.6760 138.1834 0078474 233.6338 125.7614 14.76251745406483
NEE-02 KRYSAOR          
1 39441U 13066AB  21168.85302918  .00000160  00000-0  29949-4 0  9995
2 39441  97.6858 135.5195 0080003 244.9216 114.3675 14.75189224407432
FUNCUBE-1 (AO-73)       
1 39444U 13066AE  21168.90676005  .00000336  00000-0  46970-4 0  9993
2 39444  97.5830 155.5749 0058418 148.6157 211.8565 14.82431584408091
UWE-3                   
1 39446U 13066AG  21168.89845281  .00000243  00000-0  38605-4 0  9990
2 39446  97.6367 145.1525 0069103 196.6538 163.2405 14.78789759406574
AEROCUBE 5A             
1 39465U 13072D   21168.90570232  .00004667  00000-0  38110-3 0  9995
2 39465 120.4931  51.2004 0242079 260.2265  97.1375 14.81506669 95415
AEROCUBE 5B             
1 39466U 13072E   21168.85726659  .00007004  00000-0  46271-3 0  9991
2 39466 120.4645 108.5661 0207010 273.7033  84.0379 14.92904230 95991
BRITE-CA1 (TORONTO)     
1 40020U 14033L   21169.01393709  .00000068  00000-0  19926-4 0  9993
2 40020  97.7428 342.4871 0086906 347.0510  12.8463 14.66742581374342
DUCHIFAT-1              
1 40021U 14033M   21168.80325698  .00000464  00000-0  52377-4 0  9999
2 40021  97.9726 108.9988 0013139 156.7738 203.4076 14.91350277380334
NANOSATC-BR1            
1 40024U 14033Q   21168.76908035  .00000552  00000-0  62454-4 0  9994
2 40024  97.9516 104.0149 0012340 162.1532 198.0122 14.90447809379646
QB50P1                  
1 40025U 14033R   21169.09098285  .00000427  00000-0  50880-4 0  9990
2 40025  97.9333  99.7790 0012428 169.7055 190.4419 14.89449817380024
QB50P2                  
1 40032U 14033Y   21169.05705937  .00000323  00000-0  40410-4 0  9996
2 40032  97.9171  96.3095 0011912 166.6495 193.5039 14.88957406379908
PERSEUS-M2              
1 40037U 14033AD  21168.34422277  .00000134  00000-0  21244-4 0  9999
2 40037  97.8906  87.9815 0013982 190.1030 169.9907 14.86676808378878
PERSEUS-M1              
1 40039U 14033AF  21168.98544776  .00000098  00000-0  17406-4 0  9994
2 40039  97.8844  86.9575 0013910 186.4159 173.6880 14.86297222379371
POLYITAN-1              
1 40042U 14033AJ  21169.07566901  .00000466  00000-0  55200-4 0  9996
2 40042  97.9427 100.5710 0014800 161.9735 198.2010 14.89258813379918
TIGRISAT                
1 40043U 14033AK  21168.79573745  .00000183  00000-0  34209-4 0  9991
2 40043  97.6729  12.5900 0058264 256.8946 102.5756 14.74540159375882
AEROCUBE 6A             
1 40045U 14033AM  21168.82247788  .00000234  00000-0  40645-4 0  9990
2 40045  97.6957  19.8823 0056078 246.4082 113.1233 14.75818278375999
AEROCUBE 6B             
1 40046U 14033AN  21168.55902020  .00000416  00000-0  66479-4 0  9993
2 40046  97.6853  18.4674 0055268 246.0363 113.5054 14.75860145376336
UKUBE-1                 
1 40074U 14037F   21169.18790785  .00000382  00000-0  52355-4 0  9991
2 40074  98.4296  24.9925 0005438  32.8551 327.2996 14.84561940376017
BRITE-PL2 (HEWELIUSZ)   
1 40119U 14049B   21168.83285910  .00000192  00000-0  29113-4 0  9999
2 40119  97.8880 263.3123 0017243 359.8502   0.2705 14.84660403369992
FIREBIRD 4              
1 40378U 15003C   21169.12047262  .00004966  00000-0  18086-3 0  9995
2 40378  99.1003 310.6313 0117965 170.0311 190.3301 15.22483299352906
GRIFEX                  
1 40379U 15003D   21168.99601048  .00002980  00000-0  12262-3 0  9992
2 40379  99.0956 299.7975 0128008 203.0070 156.5395 15.18057863352279
CP10 (EXOCUBE)          
1 40380U 15003E   21168.86159143  .00002001  00000-0  88608-4 0  9996
2 40380  99.0964 294.0636 0133352 222.4968 136.5877 15.15724554351874
AEROCUBE 8A             
1 40659U 15025J   21168.87463469  .00071083  12270-4  35190-3 0  9998
2 40659  55.0067  20.3619 0058855  59.3236 301.3592 15.79695234100790
AEROCUBE 8B             
1 40660U 15025K   21168.96309395  .00074092  12473-4  34576-3 0  9992
2 40660  55.0027  16.1764 0056417  62.3298 298.3459 15.81092142100841
TIANWANG 1A (TW-1A)     
1 40928U 15051D   21169.04333572  .00005549  00000-0  11584-3 0  9996
2 40928  97.0766 193.9316 0007561 297.2785 114.6116 15.45899460321783
EXACTVIEW 9             
1 40936U 15052G   21168.63813739  .00000791  00000-0  21300-4 0  9990
2 40936   6.0027 256.0783 0010153  29.2368 330.8327 14.76706363309191
AEROCUBE 5C             
1 40965U 15058B   21168.89946085  .00000290  00000-0  49604-4 0  9998
2 40965  64.7765 116.7853 0205037 310.4585  47.8796 14.74772830 95193
AEROCUBE 7              
1 40966U 15058C   21168.59586626  .00000381  00000-0  58838-4 0  9997
2 40966  64.7767 115.6287 0203887 310.2136  48.1278 14.75129874 95145
ATHENOXAT 1             
1 41168U 15077C   21168.93908465  .00002676  00000-0  10040-3 0  9991
2 41168  14.9858 257.4350 0010634 180.5838 327.7130 15.15717722304851
GALASSIA                
1 41170U 15077E   21168.56690948  .00002423  00000-0  86792-4 0  9995
2 41170  14.9883 250.8890 0012091 204.7565 155.2176 15.15925364304726
VELOX-II                
1 41171U 15077F   21168.56942773  .00001857  00000-0  65630-4 0  9990
2 41171  14.9920 308.4585 0008495  74.7408 285.3852 15.12565046304308
